stk.v.11.0

# WrittenBy    STK_v11.6.0

BEGIN Ephemeris

    NumberOfEphemerisPoints		 387

    ScenarioEpoch		 9 Jul 2019 16:00:00.000000

# Epoch in JDate format: 2458674.16666666666667
# Epoch in YYDDD format:   19190.66666666666667


    InterpolationMethod		 Lagrange

    InterpolationSamplesM1		 7

    CentralBody		 Earth

    CoordinateSystem		 ICRF

    BEGIN SegmentBoundaryTimes

        -6.9120000000000000e+05
        -6.8266560810406297e+05
        -6.8206560810406297e+05
        -6.7418419830063765e+05
        -6.7358419830063765e+05
        -6.6568567153225734e+05

    END SegmentBoundaryTimes

# Time of first point: 1 Jul 2019 16:00:00.000000000 UTCG = 2458666.16666666666667 JDate = 19182.66666666666667 YYDDD

    EphemerisTimePosVel		

-6.8375474699999997e+05  7.7858116754492489e+05 -2.6211165368977902e+06  6.3033224729417656e+06 -3.4410032261066664e+02 -7.0357134108638247e+03 -2.8840435865545937e+03
-6.8368487800000003e+05  7.5223896669433592e+05 -3.1043814076702953e+06  6.0831507221505102e+06 -4.0957423057172156e+02 -6.7908392960025994e+03 -3.4152628347039426e+03
-6.8361492099999997e+05  7.2136282220365282e+05 -3.5696800043868623e+06  5.8262060564645268e+06 -4.7270751431753558e+02 -6.5049145725511971e+03 -3.9268865622895687e+03
-6.8354506799999997e+05  6.8622136885673716e+05 -4.0129552693734174e+06  5.5347280821419358e+06 -5.3295060781077564e+02 -6.1803984707766758e+03 -4.4144519021804335e+03
-6.8347538100000005e+05  6.4707784415296291e+05 -4.4312889326139838e+06  5.2109005103684505e+06 -5.8990669290311052e+02 -5.8196926996536095e+03 -4.8747365407794150e+03
-6.8340555700000003e+05  6.0399644467129291e+05 -4.8240035051677860e+06  4.8552600722941635e+06 -6.4348298180367942e+02 -5.4233705690651268e+03 -5.3069791480838285e+03
-6.8333544099999999e+05  5.5710317151768424e+05 -5.1893507676132647e+06  4.4688599521399941e+06 -6.9344023914374702e+02 -4.9925803505936938e+03 -5.7092398699059104e+03
-6.8326478300000005e+05  5.0645035318120522e+05 -5.5258693082888164e+06  4.0521496055715987e+06 -7.3957743230869835e+02 -4.5277949298396343e+03 -6.0798872618574005e+03
-6.8319506500000006e+05  4.5342939085088606e+05 -5.8247456721607121e+06  3.6165769466305389e+06 -7.8068106911470420e+02 -4.0417679736054288e+03 -6.4091764925168191e+03
-6.8312518400000001e+05  3.9757000713394937e+05 -6.0894471547608711e+06  3.1582757235173364e+06 -8.1722228902209520e+02 -3.5301875198898324e+03 -6.7008863360708101e+03
-6.8305542599999998e+05  3.3943104799961922e+05 -6.3172650778987994e+06  2.6818391760631325e+06 -8.4882471308679396e+02 -2.9981896877080067e+03 -6.9519988636235712e+03
-6.8298559200000006e+05  2.7919662329107674e+05 -6.5075075569221079e+06  2.1887837111187680e+06 -8.7538927701767057e+02 -2.4474795884819150e+03 -7.1617233601912467e+03
-6.8291575500000000e+05  2.1728647012221685e+05 -6.6587601458308659e+06  1.6825543262191354e+06 -8.9671551098534735e+02 -1.8819206780075392e+03 -7.3284731584372685e+03
-6.8284607600000000e+05  1.5421804506488345e+05 -6.7698910762926796e+06  1.1673887574984301e+06 -9.1264051237380249e+02 -1.3062711946879058e+03 -7.4509765038650667e+03
-6.8277648400000005e+05  9.0309499252278212e+04 -6.8405534265729301e+06  6.4589170091165777e+05 -9.2311165468094509e+02 -7.2346989847757084e+02 -7.5288347253359480e+03
-6.8270687399999995e+05  2.5846444221850172e+04 -6.8704878557392387e+06  1.2040209512404913e+05 -9.2808912254730740e+02 -1.3615885016940976e+02 -7.5617521209182451e+03
-6.8266560810406297e+05 -1.2465718182352284e+04 -6.8689098811390316e+06 -1.9165764435493766e+05 -9.2843065070520413e+02  2.1262385119395179e+02 -7.5599414378246829e+03

-6.8266560810406297e+05 -1.2465718182352284e+04 -6.8689098811390316e+06 -1.9165764435493766e+05 -9.2843065070520413e+02  2.1262385119395179e+02 -7.5599414378246829e+03
-6.8260560810406297e+05 -6.8102979088923734e+04 -6.8409583226869535e+06 -6.4449344713146123e+05 -9.2546042881476012e+02  7.1874715083637398e+02 -7.5289996530220715e+03
-6.8253608710406302e+05 -1.3217604512520164e+05 -6.7707153208346190e+06 -1.1654775708877302e+06 -9.1689894595514670e+02  1.3010111143402880e+03 -7.4513760660081725e+03
-6.8246655010406300e+05 -1.9547868295763488e+05 -6.6602143038419010e+06 -1.6796363397266893e+06 -9.0288863768537726e+02  1.8755895831641376e+03 -7.3293414581618663e+03
-6.8239702710406296e+05 -2.5760770425754337e+05 -6.5101650000446327e+06 -2.1836861754786158e+06 -8.8352097341790068e+02  2.4387860597065078e+03 -7.1636959486546075e+03
-6.8232752910406294e+05 -3.1818577454220230e+05 -6.3215249167733518e+06 -2.6745579667467978e+06 -8.5892159966753752e+02  2.9871469110259018e+03 -6.9555188726960778e+03
-6.8225798910406302e+05 -3.7691131431656028e+05 -6.0952307323253714e+06 -3.1498000344250537e+06 -8.2921515401807108e+02  3.5179141861806779e+03 -6.7058726474064733e+03
-6.8218839410406293e+05 -4.3344283125011768e+05 -5.8325209702068735e+06 -3.6066402801191858e+06 -7.9456718623014820e+02  4.0279804743395975e+03 -6.4161561929372619e+03
-6.8211878310406301e+05 -4.8740995694063086e+05 -5.5350645828682221e+06 -4.0420778096153890e+06 -7.5520130352232184e+02  4.5139918458288803e+03 -6.0882434755959439e+03
-6.8206560810406297e+05 -5.2669913568603876e+05 -5.2855702625796851e+06 -4.3586013636387633e+06 -7.2210452965284787e+02  4.8671682922390919e+03 -5.8132968659239414e+03

-6.8206560810406297e+05 -5.2669913568603876e+05 -5.2855702625796851e+06 -4.3586013636387633e+06 -7.2210452965284787e+02  4.8671682922390919e+03 -5.8132968659239414e+03
-6.8200560810406297e+05 -5.6883088971996424e+05 -4.9820871087019499e+06 -4.6974933513920596e+06 -6.8177317909341787e+02  5.2451867410151972e+03 -5.4789569707771798e+03
-6.8193572610406298e+05 -6.1472469567444851e+05 -4.6009982772592604e+06 -5.0658929191788165e+06 -6.3104122436969692e+02  5.6559734602690123e+03 -5.0592766396593288e+03
-6.8186587610406301e+05 -6.5692191949636722e+05 -4.1925718279695213e+06 -5.4037483562274361e+06 -5.7658519298338456e+02  6.0325533068976320e+03 -4.6096682219414351e+03
-6.8179594710406300e+05 -6.9523504233142349e+05 -3.7585907395122699e+06 -5.7095521456492189e+06 -5.1864462600802460e+02  6.3732709368674914e+03 -4.1321145082377925e+03
-6.8172578210406296e+05 -7.2949479033616441e+05 -3.3005363909409260e+06 -5.9819413495668415e+06 -4.5741770401272044e+02  6.6766370440926376e+03 -3.6282610744220910e+03
-6.8165558710406302e+05 -7.5937248394685180e+05 -2.8223938680841872e+06 -6.2182919421211286e+06 -3.9343605144674052e+02  6.9397615505266558e+03 -3.1024984561039464e+03
-6.8158539810406300e+05 -7.8467245522152877e+05 -2.3272872810648554e+06 -6.4170522649847623e+06 -3.2711602032233469e+02  7.1609491864008533e+03 -2.5582597890139991e+03
-6.8151527810406301e+05 -8.0522899627667863e+05 -1.8186714972472049e+06 -6.5769206936092582e+06 -2.5891880896903274e+02  7.3387812631262013e+03 -1.9993340414112088e+03
-6.8144522610406298e+05 -8.2093453260827751e+05 -1.2996367863452546e+06 -6.6970643667021049e+06 -1.8925717760158719e+02  7.4723583478503288e+03 -1.4291027480701359e+03
-6.8137520410406298e+05 -8.3171510387042922e+05 -7.7303801898902457e+05 -6.7769211356385024e+06 -1.1851166510977245e+02  7.5610784812681586e+03 -8.5068323066636901e+02
-6.8130520910406299e+05 -8.3751391772782058e+05 -2.4201582755635458e+05 -6.8160738145001251e+06 -4.7100190876664755e+01  7.6044968170874081e+03 -2.6750233132981464e+02
-6.8125903110406292e+05 -8.3859732073293126e+05  1.0930722729937274e+05 -6.8195196343895597e+06  1.8678750181895504e-01  7.6082358344596241e+03  1.1828883430686454e+02
-6.8121456410406297e+05 -8.3757644938609144e+05  4.4735438641300477e+05 -6.8060039824285898e+06  4.5719471752883464e+01  7.5931098203787406e+03  4.8948128972723379e+02
-6.8114452910406294e+05 -8.3186984218804841e+05  9.7726729721439641e+05 -6.7513207662464231e+06  1.1716327679138442e+02  7.5321367129704868e+03  1.0713319674623619e+03
-6.8107453510406299e+05 -8.2118946307786426e+05  1.5010230609225787e+06 -6.6561600080296267e+06  1.8786483446207470e+02  7.4261309871465110e+03  1.6464246812631909e+03
-6.8100463710406295e+05 -8.0562183514801448e+05  2.0151011248293023e+06 -6.5212827759539913e+06  2.5735324688605209e+02  7.2759272013352347e+03  2.2109188867312746e+03
-6.8093475510406296e+05 -7.8525327134061477e+05  2.5170430751086278e+06 -6.3474331085294019e+06  3.2530047222790279e+02  7.0823383498257945e+03  2.7621353480485100e+03
-6.8086480910406297e+05 -7.6017637401970138e+05  3.0044101170801702e+06 -6.1354072004960850e+06  3.9138080341083167e+02  6.8462323240213473e+03  3.2974144238650001e+03
-6.8079485710406292e+05 -7.3055364074113616e+05  3.4738600194539074e+06 -5.8865862439690540e+06  4.5514465439933667e+02  6.5691228041134673e+03  3.8131003867917689e+03
-6.8072496410406299e+05 -6.9659329406696814e+05  3.9221697465757099e+06 -5.6027231384342629e+06  5.1615588018745211e+02  6.2529337869455139e+03  4.3056600410637175e+03
-6.8065508210406301e+05 -6.5847995561988722e+05  4.3469952337829284e+06 -5.2853650114932377e+06  5.7409561721278010e+02  5.8993609473800761e+03  4.7725169936484217e+03
-6.8058515310406301e+05 -6.1640527154129709e+05  4.7461233896216322e+06 -4.9361144363297774e+06  6.2866185606390172e+02  5.5101645079155433e+03  5.2112325518211728e+03
-6.8051520410406298e+05 -5.7063020962114469e+05  5.1169659031740278e+06 -4.5571453634425756e+06  6.7950040022052019e+02  5.0877442127491722e+03  5.6189504739727772e+03
-6.8044525110406301e+05 -5.2143608296746295e+05  5.4571932420005873e+06 -4.1507939970287648e+06  7.2629088432391256e+02  4.6346843767350911e+03  5.9930936917559347e+03
-6.8037523410406301e+05 -4.6906964829606155e+05  5.7650006839726139e+06 -3.7191069851810001e+06  7.6878356513347205e+02  4.1532513328169362e+03  6.3316577908553982e+03
-6.8030510510406294e+05 -4.1379730480429350e+05  6.0386122232404239e+06 -3.2642909578569061e+06  8.0673177713005146e+02  3.6458951154311417e+03  6.6326667551885812e+03
END Ephemeris
